ONEWEB-0704             
1 61609U 24188R   25312.09082644 -.00000521  00000+0 -15294-2 0  9993
2 61609  87.8821  80.2943 0002262  77.6538 282.4843 13.10375919 54337
ONEWEB-0705             
1 61610U 24188S   25312.17215918 -.00000630  00000+0 -18399-2 0  9996
2 61610  87.8801  80.3039 0001723  56.3806 303.7486 13.10375069 46514
ONEWEB-0706             
1 61611U 24188T   25312.08086813 -.00000711  00000+0 -20731-2 0  9990
2 61611  87.8785  80.3453 0001844  78.4158 281.7176 13.10372820 54427
ONEWEB-0707             
1 61612U 24188U   25311.85843978 -.00000429  00000+0 -12661-2 0  9997
2 61612  87.8805  80.3628 0001899  81.3878 278.7464 13.10375577 54335
ONEWEB-0708             
1 61613U 24188V   25312.10578615  .00000192  00000+0  51244-3 0  9996
2 61613  87.8790  80.3531 0001130  80.3073 279.8182 13.10373724 54348
